{"type": "FeatureCollection", "features": [ {"type": "Feature", "properties": {"norad_id": 65943, "name": "E-KAGAKU-1", "group": "stations", "lat": -2.8346791441394656, "lon": -5.928593933842622, "alt_km": 391.48112326021146, "timestamp": "2025-12-06T09:34:15.718695+00:00", "meta": {"OBJECT_NAME": "E-KAGAKU-1", "OBJECT_ID": "1998-067XQ", "EPOCH": "2025-12-05T20:28:25.846752", "MEAN_MOTION": 15.58235285, "ECCENTRICITY": 0.00033373, "INCLINATION": 51.6291, "RA_OF_ASC_NODE": 174.5622, "ARG_OF_PERICENTER": 163.5442, "MEAN_ANOMALY": 196.5659, "EPHEMERIS_TYPE": 0, "CLASSIFICATION_TYPE": "U", "NORAD_CAT_ID": 65943, "ELEMENT_SET_NO": 999, "REV_AT_EPOCH": 878, "BSTAR": 0.00098694907, "MEAN_MOTION_DOT": 0.00076316, "MEAN_MOTION_DDOT": 0}, "tle": {"line1": "1 65943U 98067XQ  25339.85307693  .00076316  00000+0  98695-3 0  9992", "line2": "2 65943  51.6291 174.5622 0003337 163.5442 196.5659 15.58235285  8789"}}, "geometry": {"type": "Point", "coordinates": [-5.928593933842622, -2.8346791441394656]}}, {"type": "Feature", "properties": {"norad_id": 66052, "name": "HRC MONOBLOCK CAMERA", "group": "stations", "lat": -49.82708996447671, "lon": 103.30411841776964, "alt_km": 412.5785044464519, "timestamp": "2025-12-06T09:34:15.718707+00:00", "meta": {"OBJECT_NAME": "HRC MONOBLOCK CAMERA", "OBJECT_ID": "1998-067XR", "EPOCH": "2025-12-05T21:33:04.932864", "MEAN_MOTION": 15.5347422, "ECCENTRICITY": 0.00041965, "INCLINATION": 51.6285, "RA_OF_ASC_NODE": 175.6042, "ARG_OF_PERICENTER": 157.7899, "MEAN_ANOMALY": 202.3273, "EPHEMERIS_TYPE": 0, "CLASSIFICATION_TYPE": "U", "NORAD_CAT_ID": 66052, "ELEMENT_SET_NO": 999, "REV_AT_EPOCH": 777, "BSTAR": 0.00068980768, "MEAN_MOTION_DOT": 0.00044373, "MEAN_MOTION_DDOT": 0}, "tle": {"line1": "1 66052U 98067XR  25339.89797376  .00044373  00000+0  68981-3 0  9992", "line2": "2 66052  51.6285 175.6042 0004196 157.7899 202.3273 15.53474220  7772"}}, "geometry": {"type": "Point", "coordinates": [103.30411841776964, -49.82708996447671]}}, {"type": "Feature", "properties": {"norad_id": 66174, "name": "HTV-X1", "group": "stations", "lat": -51.265769255722404, "lon": 92.84846374555545, "alt_km": 422.16556255351315, "timestamp": "2025-12-06T09:34:15.718718+00:00", "meta": {"OBJECT_NAME": "HTV-X1", "OBJECT_ID": "2025-241A", "EPOCH": "2025-12-05T21:33:01.156320", "MEAN_MOTION": 15.49346308, "ECCENTRICITY": 0.00035522, "INCLINATION": 51.6298, "RA_OF_ASC_NODE": 176.3533, "ARG_OF_PERICENTER": 209.1564, "MEAN_ANOMALY": 150.9226, "EPHEMERIS_TYPE": 0, "CLASSIFICATION_TYPE": "U", "NORAD_CAT_ID": 66174, "ELEMENT_SET_NO": 999, "REV_AT_EPOCH": 51, "BSTAR": 0.0002548829, "MEAN_MOTION_DOT": 0.00013789, "MEAN_MOTION_DDOT": 0}, "tle": {"line1": "1 66174U 25241A   25339.89793005  .00013789  00000+0  25488-3 0  9998", "line2": "2 66174  51.6298 176.3533 0003552 209.1564 150.9226 15.49346308   511"}}, "geometry": {"type": "Point", "coordinates": [92.84846374555545, -51.265769255722404]}}, {"type": "Feature", "properties": {"norad_id": 66515, "name": "SZ-21 MODULE", "group": "stations", "lat": -12.74948081684011, "lon": 39.87120848921749, "alt_km": 384.54448620295625, "timestamp": "2025-12-06T09:34:15.718728+00:00", "meta": {"OBJECT_NAME": "SZ-21 MODULE", "OBJECT_ID": "2025-246C", "EPOCH": "2025-12-05T12:10:17.025600", "MEAN_MOTION": 15.61972458, "ECCENTRICITY": 0.000603, "INCLINATION": 41.4776, "RA_OF_ASC_NODE": 60.1494, "ARG_OF_PERICENTER": 219.3277, "MEAN_ANOMALY": 140.7125, "EPHEMERIS_TYPE": 0, "CLASSIFICATION_TYPE": "U", "NORAD_CAT_ID": 66515, "ELEMENT_SET_NO": 999, "REV_AT_EPOCH": 331, "BSTAR": 0.00043081448, "MEAN_MOTION_DOT": 0.00038539, "MEAN_MOTION_DDOT": 0}, "tle": {"line1": "1 66515U 25246C   25339.50714150  .00038539  00000+0  43081-3 0  9993", "line2": "2 66515  41.4776  60.1494 0006030 219.3277 140.7125 15.61972458  3313"}}, "geometry": {"type": "Point", "coordinates": [39.87120848921749, -12.74948081684011]}}, {"type": "Feature", "properties": {"norad_id": 66645, "name": "SHENZHOU-22", "group": "stations", "lat": 20.865418474081974, "lon": -150.38009799942418, "alt_km": 394.03372354736075, "timestamp": "2025-12-06T09:34:15.718737+00:00", "meta": {"OBJECT_NAME": "SHENZHOU-22", "OBJECT_ID": "2025-272A", "EPOCH": "2025-12-05T22:10:41.358720", "MEAN_MOTION": 15.58760067, "ECCENTRICITY": 0.00096689, "INCLINATION": 41.4683, "RA_OF_ASC_NODE": 58.072, "ARG_OF_PERICENTER": 337.6224, "MEAN_ANOMALY": 22.4191, "EPHEMERIS_TYPE": 0, "CLASSIFICATION_TYPE": "U", "NORAD_CAT_ID": 66645, "ELEMENT_SET_NO": 999, "REV_AT_EPOCH": 26299, "BSTAR": 0.00039600638, "MEAN_MOTION_DOT": 0.00031271, "MEAN_MOTION_DDOT": 0}, "tle": {"line1": "1 66645U 25272A   25339.92408980  .00031271  00000+0  39601-3 0  9992", "line2": "2 66645  41.4683  58.0720 0009668 337.6224  22.4191 15.58760067262995"}}, "geometry": {"type": "Point", "coordinates": [-150.38009799942418, 20.865418474081974]}}, {"type": "Feature", "properties": {"norad_id": 66646, "name": "CZ-2F R/B", "group": "stations", "lat": 41.31178450358135, "lon": 145.08709897743415, "alt_km": 202.85483363057847, "timestamp": "2025-12-06T09:34:15.718748+00:00", "meta": {"OBJECT_NAME": "CZ-2F R/B", "OBJECT_ID": "2025-272B", "EPOCH": "2025-12-05T15:30:36.919296", "MEAN_MOTION": 16.25262576, "ECCENTRICITY": 0.00544848, "INCLINATION": 41.4567, "RA_OF_ASC_NODE": 54.8075, "ARG_OF_PERICENTER": 209.502, "MEAN_ANOMALY": 150.2763, "EPHEMERIS_TYPE": 0, "CLASSIFICATION_TYPE": "U", "NORAD_CAT_ID": 66646, "ELEMENT_SET_NO": 999, "REV_AT_EPOCH": 169, "BSTAR": 0.00057718843, "MEAN_MOTION_DOT": 0.02719338, "MEAN_MOTION_DDOT": 7.738456e-06}, "tle": {"line1": "1 66646U 25272B   25339.64626064  .02719338  77385-5  57719-3 0  9992", "line2": "2 66646  41.4567  54.8075 0054484 209.5020 150.2763 16.25262576  1691"}}, "geometry": {"type": "Point", "coordinates": [145.08709897743415, 41.31178450358135]}}, {"type": "Feature", "properties": {"norad_id": 66664, "name": "SOYUZ-MS 28", "group": "stations", "lat": -51.265768940230906, "lon": 92.8484678355735, "alt_km": 422.16556264331666, "timestamp": "2025-12-06T09:34:15.718758+00:00", "meta": {"OBJECT_NAME": "SOYUZ-MS 28", "OBJECT_ID": "2025-275A", "EPOCH": "2025-12-05T21:33:01.156320", "MEAN_MOTION": 15.49346308, "ECCENTRICITY": 0.00035522, "INCLINATION": 51.6298, "RA_OF_ASC_NODE": 176.3533, "ARG_OF_PERICENTER": 209.1564, "MEAN_ANOMALY": 150.9226, "EPHEMERIS_TYPE": 0, "CLASSIFICATION_TYPE": "U", "NORAD_CAT_ID": 66664, "ELEMENT_SET_NO": 999, "REV_AT_EPOCH": 128, "BSTAR": 0.0002548829, "MEAN_MOTION_DOT": 0.00013789, "MEAN_MOTION_DDOT": 0}, "tle": {"line1": "1 66664U 25275A   25339.89793005  .00013789  00000+0  25488-3 0  9999", "line2": "2 66664  51.6298 176.3533 0003552 209.1564 150.9226 15.49346308  1280"}}, "geometry": {"type": "Point", "coordinates": [92.8484678355735, -51.265768940230906]}}, {"type": "Feature", "properties": {"norad_id": 66906, "name": "1998-067XS", "group": "stations", "lat": -49.177465374514334, "lon": 107.33642092628537, "alt_km": 421.9323718326623, "timestamp": "2025-12-06T09:34:15.718771+00:00", "meta": {"OBJECT_NAME": "1998-067XS", "OBJECT_ID": "1998-067XS", "EPOCH": "2025-12-05T23:03:45.207360", "MEAN_MOTION": 15.50072979, "ECCENTRICITY": 0.00042511, "INCLINATION": 51.6296, "RA_OF_ASC_NODE": 176.0242, "ARG_OF_PERICENTER": 173.878, "MEAN_ANOMALY": 186.2262, "EPHEMERIS_TYPE": 0, "CLASSIFICATION_TYPE": "U", "NORAD_CAT_ID": 66906, "ELEMENT_SET_NO": 999, "REV_AT_EPOCH": 56, "BSTAR": 0.00063070606, "MEAN_MOTION_DOT": 0.00035803, "MEAN_MOTION_DDOT": 0}, "tle": {"line1": "1 66906U 98067XS  25339.96093990  .00035803  00000+0  63071-3 0  9992", "line2": "2 66906  51.6296 176.0242 0004251 173.8780 186.2262 15.50072979   569"}}, "geometry": {"type": "Point", "coordinates": [107.33642092628537, -49.177465374514334]}}, {"type": "Feature", "properties": {"norad_id": 66907, "name": "1998-067XT", "group": "stations", "lat": -48.503651453107175, "lon": 110.25371055504942, "alt_km": 420.3585523516076, "timestamp": "2025-12-06T09:34:15.718791+00:00", "meta": {"OBJECT_NAME": "1998-067XT", "OBJECT_ID": "1998-067XT", "EPOCH": "2025-12-05T23:03:20.722464", "MEAN_MOTION": 15.50347782, "ECCENTRICITY": 0.00053008, "INCLINATION": 51.6292, "RA_OF_ASC_NODE": 176.0227, "ARG_OF_PERICENTER": 190.4344, "MEAN_ANOMALY": 169.6536, "EPHEMERIS_TYPE": 0, "CLASSIFICATION_TYPE": "U", "NORAD_CAT_ID": 66907, "ELEMENT_SET_NO": 999, "REV_AT_EPOCH": 56, "BSTAR": 0.0012672984, "MEAN_MOTION_DOT": 0.00073478, "MEAN_MOTION_DDOT": 0}, "tle": {"line1": "1 66907U 98067XT  25339.96065651  .00073478  00000+0  12673-2 0  9997", "line2": "2 66907  51.6292 176.0227 0005300 190.4344 169.6536 15.50347782   562"}}, "geometry": {"type": "Point", "coordinates": [110.25371055504942, -48.503651453107175]}}, {"type": "Feature", "properties": {"norad_id": 66908, "name": "1998-067XU", "group": "stations", "lat": -48.27234752379539, "lon": 111.17149701318806, "alt_km": 420.2419061838791, "timestamp": "2025-12-06T09:34:15.718808+00:00", "meta": {"OBJECT_NAME": "1998-067XU", "OBJECT_ID": "1998-067XU", "EPOCH": "2025-12-05T19:57:34.192800", "MEAN_MOTION": 15.50396969, "ECCENTRICITY": 0.00055014, "INCLINATION": 51.6293, "RA_OF_ASC_NODE": 176.6606, "ARG_OF_PERICENTER": 189.4438, "MEAN_ANOMALY": 170.6448, "EPHEMERIS_TYPE": 0, "CLASSIFICATION_TYPE": "U", "NORAD_CAT_ID": 66908, "ELEMENT_SET_NO": 999, "REV_AT_EPOCH": 54, "BSTAR": 0.0012460713, "MEAN_MOTION_DOT": 0.00072359, "MEAN_MOTION_DDOT": 0}, "tle": {"line1": "1 66908U 98067XU  25339.83164575  .00072359  00000+0  12461-2 0  9991", "line2": "2 66908  51.6293 176.6606 0005501 189.4438 170.6448 15.50396969   549"}}, "geometry": {"type": "Point", "coordinates": [111.17149701318806, -48.27234752379539]}}]}